CTC2_L_00098016-03
1 77556U 25964UO  26070.40842593  .00000000  00000+0  00000-0 0  9995
2 77556  50.0000 180.0000 0000000   0.0000   0.0000 14.60983543    10
CTC2_L_00098016-04
1 77557U 25992ZZ  26070.40842593  .00000000  00000+0  00000-0 0  9997
2 77557  50.0000 180.0000 0000000   0.0000  90.0000 14.60983543    10
CTC2_L_00098017-01
1 77558U 26611U   26070.40842593  .00000000  00000+0  00000-0 0  9997
2 77558  50.0000 192.0000 0000000   0.0000 192.0000 14.60983543    17
CTC2_L_00098017-02
1 77559U 23007J   26070.40842593  .00000000  00000+0  00000-0 0  9994
2 77559  50.0000 192.0000 0000000   0.0000 282.0000 14.60983543    18
CTC2_L_00098017-03
1 77560U 23340LV  26070.40842593  .00000000  00000+0  00000-0 0  9996
2 77560  50.0000 192.0000 0000000   0.0000  12.0000 14.60983543    11
CTC2_L_00098017-04
1 77561U 25863IF  26070.40842593  .00000000  00000+0  00000-0 0  9999
2 77561  50.0000 192.0000 0000000   0.0000 102.0000 14.60983543    12
CTC2_L_00098018-01
1 77562U 25350KR  26070.40842593  .00000000  00000+0  00000-0 0  9991
2 77562  50.0000 204.0000 0000000   0.0000 204.0000 14.60983543    10
CTC2_L_00098018-02
1 77563U 22791TR  26070.40842593  .00000000  00000+0  00000-0 0  9998
2 77563  50.0000 204.0000 0000000   0.0000 294.0000 14.60983543    10
CTC2_L_00098018-03
1 77564U 25269MP  26070.40842593  .00000000  00000+0  00000-0 0  9992
2 77564  50.0000 204.0000 0000000   0.0000  24.0000 14.60983543    12
CTC2_L_00098018-04
1 77565U 22328XI  26070.40842593  .00000000  00000+0  00000-0 0  9996
2 77565  50.0000 204.0000 0000000   0.0000 114.0000 14.60983543    13
CTC2_L_00098019-01
1 77566U 26752JD  26070.40842593  .00000000  00000+0  00000-0 0  9992
2 77566  50.0000 216.0000 0000000   0.0000 216.0000 14.60983543    10
CTC2_L_00098019-02
1 77567U 22138FP  26070.40842593  .00000000  00000+0  00000-0 0  9997
2 77567  50.0000 216.0000 0000000   0.0000 306.0000 14.60983543    11
CTC2_L_00098019-03
1 77568U 25887PN  26070.40842593  .00000000  00000+0  00000-0 0  9992
2 77568  50.0000 216.0000 0000000   0.0000  36.0000 14.60983543    12
CTC2_L_00098019-04
1 77569U 22211UN  26070.40842593  .00000000  00000+0  00000-0 0  9991
2 77569  50.0000 216.0000 0000000   0.0000 126.0000 14.60983543    13
CTC2_L_00098020-01
1 77570U 24309ZS  26070.40842593  .00000000  00000+0  00000-0 0  9993
2 77570  50.0000 228.0000 0000000   0.0000 228.0000 14.60983543    11
CTC2_L_00098020-02
1 77571U 25851MZ  26070.40842593  .00000000  00000+0  00000-0 0  9997
2 77571  50.0000 228.0000 0000000   0.0000 318.0000 14.60983543    12
CTC2_L_00098020-03
1 77572U 25383PM  26070.40842593  .00000000  00000+0  00000-0 0  9998
2 77572  50.0000 228.0000 0000000   0.0000  48.0000 14.60983543    13
CTC2_L_00098020-04
1 77573U 23941DW  26070.40842593  .00000000  00000+0  00000-0 0  9997
2 77573  50.0000 228.0000 0000000   0.0000 138.0000 14.60983543    14
CTC2_L_00098021-01
1 77574U 22674FO  26070.40842593  .00000000  00000+0  00000-0 0  9990
2 77574  50.0000 240.0000 0000000   0.0000 240.0000 14.60983543    13
CTC2_L_00098021-02
1 77575U 24099RE  26070.40842593  .00000000  00000+0  00000-0 0  9994
2 77575  50.0000 240.0000 0000000   0.0000 330.0000 14.60983543    14
CTC2_L_00098021-03
1 77576U 25856DU  26070.40842593  .00000000  00000+0  00000-0 0  9997
2 77576  50.0000 240.0000 0000000   0.0000  60.0000 14.60983543    15
CTC2_L_00098021-04
1 77577U 23810LB  26070.40842593  .00000000  00000+0  00000-0 0  9996
2 77577  50.0000 240.0000 0000000   0.0000 150.0000 14.60983543    16
CTC2_L_00098022-01
1 77578U 25401PR  26070.40842593  .00000000  00000+0  00000-0 0  9995
2 77578  50.0000 252.0000 0000000   0.0000 252.0000 14.60983543    13
CTC2_L_00098022-02
1 77579U 24921WL  26070.40842593  .00000000  00000+0  00000-0 0  9992
2 77579  50.0000 252.0000 0000000   0.0000 342.0000 14.60983543    14
CTC2_L_00098022-03
1 77580U 26338QK  26070.40842593  .00000000  00000+0  00000-0 0  9998
2 77580  50.0000 252.0000 0000000   0.0000  72.0000 14.60983543    16
CTC2_L_00098022-04
1 77581U 26110AX  26070.40842593  .00000000  00000+0  00000-0 0  9997
2 77581  50.0000 252.0000 0000000   0.0000 162.0000 14.60983543    17
CTC2_L_00098023-01
1 77582U 25440JD  26070.40842593  .00000000  00000+0  00000-0 0  9993
2 77582  50.0000 264.0000 0000000   0.0000 264.0000 14.60983543    14
CTC2_L_00098023-02
1 77583U 23349SA  26070.40842593  .00000000  00000+0  00000-0 0  9990
2 77583  50.0000 264.0000 0000000   0.0000 354.0000 14.60983543    15
CTC2_L_00098023-03
1 77584U 24556JG  26070.40842593  .00000000  00000+0  00000-0 0  9992
2 77584  50.0000 264.0000 0000000   0.0000  84.0000 14.60983543    16
CTC2_L_00098023-04
1 77585U 26569XG  26070.40842593  .00000000  00000+0  00000-0 0  9999
2 77585  50.0000 264.0000 0000000   0.0000 174.0000 14.60983543    17
CTC2_L_00098024-01
1 77586U 25285JP  26070.40842593  .00000000  00000+0  00000-0 0  9994
2 77586  50.0000 276.0000 0000000   0.0000 276.0000 14.60983543    14
CTC2_L_00098024-02
1 77587U 24043LF  26070.40842593  .00000000  00000+0  00000-0 0  9996
2 77587  50.0000 276.0000 0000000   0.0000   6.0000 14.60983543    16
CTC2_L_00098024-03
1 77588U 26161LS  26070.40842593  .00000000  00000+0  00000-0 0  9990
2 77588  50.0000 276.0000 0000000   0.0000  96.0000 14.60983543    16
CTC2_L_00098024-04
1 77589U 26074RH  26070.40842593  .00000000  00000+0  00000-0 0  9994
2 77589  50.0000 276.0000 0000000   0.0000 186.0000 14.60983543    17
CTC2_L_00098025-01
1 77590U 24535JA  26070.40842593  .00000000  00000+0  00000-0 0  9996
2 77590  50.0000 288.0000 0000000   0.0000 288.0000 14.60983543    15
CTC2_L_00098025-02
1 77591U 26964KE  26070.40842593  .00000000  00000+0  00000-0 0  9995
2 77591  50.0000 288.0000 0000000   0.0000  18.0000 14.60983543    17
CTC2_L_00098025-03
1 77592U 26529WY  26070.40842593  .00000000  00000+0  00000-0 0  9993
2 77592  50.0000 288.0000 0000000   0.0000 108.0000 14.60983543    18
CTC2_L_00098025-04
1 77593U 22102X   26070.40842593  .00000000  00000+0  00000-0 0  9997
2 77593  50.0000 288.0000 0000000   0.0000 198.0000 14.60983543    18
CTC2_L_00098026-01
1 77594U 25624HY  26070.40842593  .00000000  00000+0  00000-0 0  9990
2 77594  50.0000 300.0000 0000000   0.0000 300.0000 14.60983543    19
CTC2_L_00098026-02
1 77595U 22131TM  26070.40842593  .00000000  00000+0  00000-0 0  9991
2 77595  50.0000 300.0000 0000000   0.0000  30.0000 14.60983543    10
CTC2_L_00098026-03
1 77596U 23783K   26070.40842593  .00000000  00000+0  00000-0 0  9996
2 77596  50.0000 300.0000 0000000   0.0000 120.0000 14.60983543    11
CTC2_L_00098026-04
1 77597U 25947YG  26070.40842593  .00000000  00000+0  00000-0 0  9991
2 77597  50.0000 300.0000 0000000   0.0000 210.0000 14.60983543    12
CTC2_L_00098027-01
1 77598U 22978MP  26070.40842593  .00000000  00000+0  00000-0 0  9993
2 77598  50.0000 312.0000 0000000   0.0000 312.0000 14.60983543    19
CTC2_L_00098027-02
1 77599U 23789BA  26070.40842593  .00000000  00000+0  00000-0 0  9995
2 77599  50.0000 312.0000 0000000   0.0000  42.0000 14.60983543    10
CTC2_L_00098027-03
1 77600U 22593MO  26070.40842593  .00000000  00000+0  00000-0 0  9990
2 77600  50.0000 312.0000 0000000   0.0000 132.0000 14.60983543    13
CTC2_L_00098027-04
1 77601U 22089YZ  26070.40842593  .00000000  00000+0  00000-0 0  9991
2 77601  50.0000 312.0000 0000000   0.0000 222.0000 14.60983543    14
CTC2_L_00098028-01
1 77602U 24873TD  26070.40842593  .00000000  00000+0  00000-0 0  9995
2 77602  50.0000 324.0000 0000000   0.0000 324.0000 14.60983543    11
CTC2_L_00098028-02
1 77603U 24679NL  26070.40842593  .00000000  00000+0  00000-0 0  9990
2 77603  50.0000 324.0000 0000000   0.0000  54.0000 14.60983543    12
CTC2_L_00098028-03
1 77604U 23315NR  26070.40842593  .00000000  00000+0  00000-0 0  9997
2 77604  50.0000 324.0000 0000000   0.0000 144.0000 14.60983543    13
CTC2_L_00098028-04
1 77605U 22134VE  26070.40842593  .00000000  00000+0  00000-0 0  9996
2 77605  50.0000 324.0000 0000000   0.0000 234.0000 14.60983543    14
CTC2_L_00098029-01
1 77606U 25344JN  26070.40842593  .00000000  00000+0  00000-0 0  9993
2 77606  50.0000 336.0000 0000000   0.0000 336.0000 14.60983543    11
CTC2_L_00098029-02
1 77607U 23922EC  26070.40842593  .00000000  00000+0  00000-0 0  9994
2 77607  50.0000 336.0000 0000000   0.0000  66.0000 14.60983543    12
CTC2_L_00098029-03
1 77608U 22347GL  26070.40842593  .00000000  00000+0  00000-0 0  9995
2 77608  50.0000 336.0000 0000000   0.0000 156.0000 14.60983543    13
CTC2_L_00098029-04
1 77609U 23185YF  26070.40842593  .00000000  00000+0  00000-0 0  9997
2 77609  50.0000 336.0000 0000000   0.0000 246.0000 14.60983543    14
CTC2_L_00098030-01
1 77610U 23479QF  26070.40842593  .00000000  00000+0  00000-0 0  9995
2 77610  50.0000 348.0000 0000000   0.0000 348.0000 14.60983543    12
CTC2_L_00098030-02
1 77611U 24991ZA  26070.40842593  .00000000  00000+0  00000-0 0  9996
2 77611  50.0000 348.0000 0000000   0.0000  78.0000 14.60983543    13
CTC2_L_00098030-03
1 77612U 26573BS  26070.40842593  .00000000  00000+0  00000-0 0  9995
2 77612  50.0000 348.0000 0000000   0.0000 168.0000 14.60983543    14
CTC2_L_00098030-04
1 77613U 23559AF  26070.40842593  .00000000  00000+0  00000-0 0  9997
2 77613  50.0000 348.0000 0000000   0.0000 258.0000 14.60983543    15
